{
  "type": "FeatureCollection",
  "features": [
    {
      "type": "Feature",
      "properties": {
        "norad_id": 43706,
        "name": "BEIDOU-3 M17 (C36)",
        "group": "beidou",
        "lat": -46.863647887843506,
        "lon": 58.677626684150304,
        "alt_km": 21526.00024585336,
        "timestamp": "2025-12-25T03:55:56.622967+00:00",
        "meta_object_name": "BEIDOU-3 M17 (C36)",
        "meta_object_id": "2018-093A",
        "meta_epoch": "2025-12-22T11:03:17.644896",
        "meta_mean_motion": 1.86228432,
        "meta_eccentricity": 0.00060427,
        "meta_inclination": 54.173,
        "meta_ra_of_asc_node": 188.2918,
        "meta_arg_of_pericenter": 307.405,
        "meta_mean_anomaly": 284.4943,
        "meta_ephemeris_type": 0,
        "meta_classification_type": "U",
        "meta_norad_cat_id": 43706,
        "meta_element_set_no": 999,
        "meta_rev_at_epoch": 4824,
        "meta_bstar": 0,
        "meta_mean_motion_dot": 9.4e-07,
        "meta_mean_motion_ddot": 0,
        "tle_line1": "1 43706U 18093A   25356.46062089  .00000094  00000+0  00000+0 0  9998",
        "tle_line2": "2 43706  54.1730 188.2918 0006042 307.4050 284.4943  1.86228432 48248"
      },
      "geometry": {
        "type": "Point",
        "coordinates": [
          58.677626684150304,
          -46.863647887843506
        ]
      }
    },
    {
      "type": "Feature",
      "properties": {
        "norad_id": 43707,
        "name": "BEIDOU-3 M18 (C37)",
        "group": "beidou",
        "lat": -18.44564349110659,
        "lon": 174.24603734785782,
        "alt_km": 21514.647405976753,
        "timestamp": "2025-12-25T03:55:56.622978+00:00",
        "meta_object_name": "BEIDOU-3 M18 (C37)",
        "meta_object_id": "2018-093B",
        "meta_epoch": "2025-12-23T01:12:21.238848",
        "meta_mean_motion": 1.86226616,
        "meta_eccentricity": 0.0006147,
        "meta_inclination": 54.1741,
        "meta_ra_of_asc_node": 188.2636,
        "meta_arg_of_pericenter": 354.1254,
        "meta_mean_anomaly": 5.9078,
        "meta_ephemeris_type": 0,
        "meta_classification_type": "U",
        "meta_norad_cat_id": 43707,
        "meta_element_set_no": 999,
        "meta_rev_at_epoch": 4825,
        "meta_bstar": 0,
        "meta_mean_motion_dot": 9.6e-07,
        "meta_mean_motion_ddot": 0,
        "tle_line1": "1 43707U 18093B   25357.05024582  .00000096  00000+0  00000+0 0  9993",
        "tle_line2": "2 43707  54.1741 188.2636 0006147 354.1254   5.9078  1.86226616 48257"
      },
      "geometry": {
        "type": "Point",
        "coordinates": [
          174.24603734785782,
          -18.44564349110659
        ]
      }
    },
    {
      "type": "Feature",
      "properties": {
        "norad_id": 44231,
        "name": "BEIDOU-2 G8 (C01)",
        "group": "beidou",
        "lat": -1.165632440548925,
        "lon": -62.64727890578021,
        "alt_km": 35757.29228258578,
        "timestamp": "2025-12-25T03:55:56.622990+00:00",
        "meta_object_name": "BEIDOU-2 G8 (C01)",
        "meta_object_id": "2019-027A",
        "meta_epoch": "2025-12-24T20:38:05.273664",
        "meta_mean_motion": 1.00274605,
        "meta_eccentricity": 0.0008294,
        "meta_inclination": 1.6907,
        "meta_ra_of_asc_node": 74.7361,
        "meta_arg_of_pericenter": 259.0299,
        "meta_mean_anomaly": 213.8933,
        "meta_ephemeris_type": 0,
        "meta_classification_type": "U",
        "meta_norad_cat_id": 44231,
        "meta_element_set_no": 999,
        "meta_rev_at_epoch": 2433,
        "meta_bstar": 0,
        "meta_mean_motion_dot": -2.26e-06,
        "meta_mean_motion_ddot": 0,
        "tle_line1": "1 44231U 19027A   25358.85978326 -.00000226  00000+0  00000+0 0  9993",
        "tle_line2": "2 44231   1.6907  74.7361 0008294 259.0299 213.8933  1.00274605 24332"
      },
      "geometry": {
        "type": "Point",
        "coordinates": [
          -62.64727890578021,
          -1.165632440548925
        ]
      }
    },
    {
      "type": "Feature",
      "properties": {
        "norad_id": 44337,
        "name": "BEIDOU-3 IGSO-2 (C39)",
        "group": "beidou",
        "lat": 49.822719987050824,
        "lon": -75.04444938376474,
        "alt_km": 35784.18285133385,
        "timestamp": "2025-12-25T03:55:56.623002+00:00",
        "meta_object_name": "BEIDOU-3 IGSO-2 (C39)",
        "meta_object_id": "2019-035A",
        "meta_epoch": "2025-12-24T20:30:50.966784",
        "meta_mean_motion": 1.00267539,
        "meta_eccentricity": 0.0037852,
        "meta_inclination": 55.2292,
        "meta_ra_of_asc_node": 160.3949,
        "meta_arg_of_pericenter": 202.5754,
        "meta_mean_anomaly": 157.6854,
        "meta_ephemeris_type": 0,
        "meta_classification_type": "U",
        "meta_norad_cat_id": 44337,
        "meta_element_set_no": 999,
        "meta_rev_at_epoch": 2392,
        "meta_bstar": 0,
        "meta_mean_motion_dot": -7e-07,
        "meta_mean_motion_ddot": 0,
        "tle_line1": "1 44337U 19035A   25358.85475656 -.00000070  00000+0  00000+0 0  9994",
        "tle_line2": "2 44337  55.2292 160.3949 0037852 202.5754 157.6854  1.00267539 23925"
      },
      "geometry": {
        "type": "Point",
        "coordinates": [
          -75.04444938376474,
          49.822719987050824
        ]
      }
    },
    {
      "type": "Feature",
      "properties": {
        "norad_id": 44542,
        "name": "BEIDOU-3 M24 (C46)",
        "group": "beidou",
        "lat": -50.02091306362389,
        "lon": 129.86706412559,
        "alt_km": 21536.877208270205,
        "timestamp": "2025-12-25T03:55:56.623014+00:00",
        "meta_object_name": "BEIDOU-3 M24 (C46)",
        "meta_object_id": "2019-061A",
        "meta_epoch": "2025-12-24T04:40:53.254848",
        "meta_mean_motion": 1.86229374,
        "meta_eccentricity": 0.0009588,
        "meta_inclination": 54.4008,
        "meta_ra_of_asc_node": 188.6295,
        "meta_arg_of_pericenter": 26.2162,
        "meta_mean_anomaly": 333.8692,
        "meta_ephemeris_type": 0,
        "meta_classification_type": "U",
        "meta_norad_cat_id": 44542,
        "meta_element_set_no": 999,
        "meta_rev_at_epoch": 4253,
        "meta_bstar": 0,
        "meta_mean_motion_dot": 1.02e-06,
        "meta_mean_motion_ddot": 0,
        "tle_line1": "1 44542U 19061A   25358.19506082  .00000102  00000+0  00000+0 0  9991",
        "tle_line2": "2 44542  54.4008 188.6295 0009588  26.2162 333.8692  1.86229374 42530"
      },
      "geometry": {
        "type": "Point",
        "coordinates": [
          129.86706412559,
          -50.02091306362389
        ]
      }
    },
    {
      "type": "Feature",
      "properties": {
        "norad_id": 44543,
        "name": "BEIDOU-3 M23 (C45)",
        "group": "beidou",
        "lat": -17.971624906513266,
        "lon": 22.011338932614475,
        "alt_km": 21547.725461862516,
        "timestamp": "2025-12-25T03:55:56.623026+00:00",
        "meta_object_name": "BEIDOU-3 M23 (C45)",
        "meta_object_id": "2019-061B",
        "meta_epoch": "2025-12-24T01:09:49.421952",
        "meta_mean_motion": 1.86227524,
        "meta_eccentricity": 0.00060474,
        "meta_inclination": 54.3997,
        "meta_ra_of_asc_node": 188.6027,
        "meta_arg_of_pericenter": 26.1168,
        "meta_mean_anomaly": 148.3907,
        "meta_ephemeris_type": 0,
        "meta_classification_type": "U",
        "meta_norad_cat_id": 44543,
        "meta_element_set_no": 999,
        "meta_rev_at_epoch": 4253,
        "meta_bstar": 0,
        "meta_mean_motion_dot": 1.01e-06,
        "meta_mean_motion_ddot": 0,
        "tle_line1": "1 44543U 19061B   25358.04848868  .00000101  00000+0  00000+0 0  9996",
        "tle_line2": "2 44543  54.3997 188.6027 0006047  26.1168 148.3907  1.86227524 42535"
      },
      "geometry": {
        "type": "Point",
        "coordinates": [
          22.011338932614475,
          -17.971624906513266
        ]
      }
    },
    {
      "type": "Feature",
      "properties": {
        "norad_id": 44793,
        "name": "BEIDOU-3 M22 (C44)",
        "group": "beidou",
        "lat": 29.073603879165415,
        "lon": -30.342158961507714,
        "alt_km": 21507.804373868785,
        "timestamp": "2025-12-25T03:55:56.623037+00:00",
        "meta_object_name": "BEIDOU-3 M22 (C44)",
        "meta_object_id": "2019-078A",
        "meta_epoch": "2025-12-22T23:04:03.320256",
        "meta_mean_motion": 1.86232206,
        "meta_eccentricity": 0.00060944,
        "meta_inclination": 54.0989,
        "meta_ra_of_asc_node": 306.0279,
        "meta_arg_of_pericenter": 24.0205,
        "meta_mean_anomaly": 336.0117,
        "meta_ephemeris_type": 0,
        "meta_classification_type": "U",
        "meta_norad_cat_id": 44793,
        "meta_element_set_no": 999,
        "meta_rev_at_epoch": 4136,
        "meta_bstar": 0,
        "meta_mean_motion_dot": -5.4e-07,
        "meta_mean_motion_ddot": 0,
        "tle_line1": "1 44793U 19078A   25356.96114954 -.00000054  00000+0  00000+0 0  9990",
        "tle_line2": "2 44793  54.0989 306.0279 0006094  24.0205 336.0117  1.86232206 41368"
      },
      "geometry": {
        "type": "Point",
        "coordinates": [
          -30.342158961507714,
          29.073603879165415
        ]
      }
    }
  ]
}